[
    {
        "Altitude(m)": 570344.6326003906,
        "Argument of Periapsis(deg)": 0.033114955553567506,
        "Eccentricity": 0.0,
        "Inclination(deg)": 53.0,
        "Latitude(deg)": -49.336625351939354,
        "Longitude(deg)": -14.729654796458778,
        "Mean Anomaly(deg)": -71.36013566211203,
        "RAAN(deg)": 149.95071684264008,
        "Satellite Name": "Starlink Shell 1 674",
        "Satellite Number": 674,
        "Semi-Major Axis(m)": 6931778.249405717,
        "Time(s)": 950
    },
    {
        "Altitude(m)": 570245.4750237067,
        "Argument of Periapsis(deg)": 0.03346353403307874,
        "Eccentricity": 0.0,
        "Inclination(deg)": 53.0,
        "Latitude(deg)": -49.08919315832299,
        "Longitude(deg)": -13.894792388302127,
        "Mean Anomaly(deg)": -70.73330445855532,
        "RAAN(deg)": 149.95019807256264,
        "Satellite Name": "Starlink Shell 1 674",
        "Satellite Number": 674,
        "Semi-Major Axis(m)": 6931778.249405717,
        "Time(s)": 960
    },
    {
        "Altitude(m)": 570143.4724244804,
        "Argument of Periapsis(deg)": 0.03381211251258998,
        "Eccentricity": 0.0,
        "Inclination(deg)": 53.0,
        "Latitude(deg)": -48.835165531319106,
        "Longitude(deg)": -13.068690917211178,
        "Mean Anomaly(deg)": -70.10647325499855,
        "RAAN(deg)": 149.94967930248512,
        "Satellite Name": "Starlink Shell 1 674",
        "Satellite Number": 674,
        "Semi-Major Axis(m)": 6931778.249405717,
        "Time(s)": 970
    },
    {
        "Altitude(m)": 570038.6652658613,
        "Argument of Periapsis(deg)": 0.034160690992101214,
        "Eccentricity": 0.0,
        "Inclination(deg)": 53.0,
        "Latitude(deg)": -48.57466554816654,
        "Longitude(deg)": -12.251408449906267,
        "Mean Anomaly(deg)": -69.4796420514419,
        "RAAN(deg)": 149.9491605324077,
        "Satellite Name": "Starlink Shell 1 674",
        "Satellite Number": 674,
        "Semi-Major Axis(m)": 6931778.249405717,
        "Time(s)": 980
    },
    {
        "Altitude(m)": 569931.0951070238,
        "Argument of Periapsis(deg)": 0.034509269471612446,
        "Eccentricity": 0.0,
        "Inclination(deg)": 53.0,
        "Latitude(deg)": -48.30781634561552,
        "Longitude(deg)": -11.442989674073191,
        "Mean Anomaly(deg)": -68.85281084788524,
        "RAAN(deg)": 149.9486417623302,
        "Satellite Name": "Starlink Shell 1 674",
        "Satellite Number": 674,
        "Semi-Major Axis(m)": 6931778.249405717,
        "Time(s)": 990
    }
]